{
    "links": {
        "self": "http://www.neowsapp.com/rest/v1/neo/3653414?api_key=iIulBulltgU6a56xZRHN4H3l9WmuAYTsLGpBGhQ2"
    },
    "id": "3653414",
    "neo_reference_id": "3653414",
    "name": "(2013 VL2)",
    "designation": "2013 VL2",
    "nasa_jpl_url": "http://ssd.jpl.nasa.gov/sbdb.cgi?sstr=3653414",
    "absolute_magnitude_h": 22.4,
    "estimated_diameter": {
        "kilometers": {
            "estimated_diameter_min": 0.0880146521,
            "estimated_diameter_max": 0.1968067451
        },
        "meters": {
            "estimated_diameter_min": 88.0146520901,
            "estimated_diameter_max": 196.8067450894
        },
        "miles": {
            "estimated_diameter_min": 0.0546897524,
            "estimated_diameter_max": 0.122290004
        },
        "feet": {
            "estimated_diameter_min": 288.7619911632,
            "estimated_diameter_max": 645.6914415591
        }
    },
    "is_potentially_hazardous_asteroid": false,
    "close_approach_data": [
        {
            "close_approach_date": "2013-10-17",
            "close_approach_date_full": "2013-Oct-17 16:11",
            "epoch_date_close_approach": 1382026260000,
            "relative_velocity": {
                "kilometers_per_second": "9.1113336315",
                "kilometers_per_hour": "32800.8010735031",
                "miles_per_hour": "20381.1422003664"
            },
            "miss_distance": {
                "astronomical": "0.23546307",
                "lunar": "91.59513423",
                "kilometers": "35224773.7356609",
                "miles": "21887659.45508442"
            },
            "orbiting_body": "Earth"
        }
    ],
    "orbital_data": {
        "orbit_id": "9",
        "orbit_determination_date": "2017-04-06 08:43:51",
        "first_observation_date": "2013-11-02",
        "last_observation_date": "2013-11-14",
        "data_arc_in_days": 12,
        "observations_used": 30,
        "orbit_uncertainty": "8",
        "minimum_orbit_intersection": ".193424",
        "jupiter_tisserand_invariant": "2.934",
        "epoch_osculation": "2456601.5",
        "eccentricity": ".6014585190332852",
        "semi_major_axis": "2.936082220768899",
        "inclination": "14.45128181182944",
        "ascending_node_longitude": "42.51854659802608",
        "orbital_period": "1837.599003524166",
        "perihelion_distance": "1.170150556505278",
        "perihelion_argument": "335.686162577669",
        "aphelion_distance": "4.702013885032521",
        "perihelion_time": "2456570.026322677848",
        "mean_anomaly": "6.165939257827701",
        "mean_motion": ".1959078119380716",
        "equinox": "J2000",
        "orbit_class": {
            "orbit_class_type": "AMO",
            "orbit_class_description": "Near-Earth asteroid orbits similar to that of 1221 Amor",
            "orbit_class_range": "1.017 AU < q (perihelion) < 1.3 AU"
        }
    },
    "is_sentry_object": false
}